start=new Date('2022-05-22T00:00:00.000Z').valueOf();
sats=[{"MEAN_MOTION_DDOT":"0.0000000000000","PERIAPSIS":"545.937","DECAY_DATE":null,"REV_AT_EPOCH":"5788","INCLINATION":"53.0550","COUNTRY_CODE":"US","RA_OF_ASC_NODE":"107.9514","EPOCH":"2022-05-21T14:41:55.832064","TLE_LINE2":"2 48365  53.0550 107.9514 0001835  51.2097 308.9056 15.06401959 57883","OBJECT_TYPE":"PAYLOAD","MEAN_ELEMENT_THEORY":"SGP4","MEAN_MOTION_DOT":"0.00001042","CENTER_NAME":"EARTH","SITE":"AFETR","MEAN_ANOMALY":"308.9056","ELEMENT_SET_NO":"999","GP_ID":"204192416","ECCENTRICITY":"0.00018350","SEMIMAJOR_AXIS":"6925.343","REF_FRAME":"TEME","CLASSIFICATION_TYPE":"U","PERIOD":"95.592","NORAD_CAT_ID":"48365","TIME_SYSTEM":"UTC","OBJECT_ID":"2021-038N","ARG_OF_PERICENTER":"51.2097","EPHEMERIS_TYPE":"0","BSTAR":"0.00008883000000","OBJECT_NAME":"STARLINK-2608","RCS_SIZE":"LARGE","TLE_LINE1":"1 48365U 21038N   22141.61245176  .00001042  00000-0  88830-4 0  9990","MEAN_MOTION":"15.06401959","FILE":"3457577","APOAPSIS":"548.478","LAUNCH_DATE":"2021-05-04"},{"SITE":"AFETR","MEAN_ANOMALY":"300.4996","ELEMENT_SET_NO":"999","MEAN_ELEMENT_THEORY":"SGP4","MEAN_MOTION_DOT":"0.00001304","CENTER_NAME":"EARTH","RA_OF_ASC_NODE":"104.1922","EPOCH":"2022-05-21T08:01:51.546432","TLE_LINE2":"2 48366  53.0574 104.1922 0001790  59.6170 300.4996 15.06402125 57905","OBJECT_TYPE":"PAYLOAD","MEAN_MOTION_DDOT":"0.0000000000000","PERIAPSIS":"545.967","DECAY_DATE":null,"REV_AT_EPOCH":"5790","INCLINATION":"53.0574","COUNTRY_CODE":"US","RCS_SIZE":"LARGE","OBJECT_NAME":"STARLINK-2631","TLE_LINE1":"1 48366U 21038P   22141.33462438  .00001304  00000-0  10642-3 0  9998","FILE":"3457102","MEAN_MOTION":"15.06402125","APOAPSIS":"548.447","LAUNCH_DATE":"2021-05-04","ARG_OF_PERICENTER":"59.6170","EPHEMERIS_TYPE":"0","BSTAR":"0.00010642000000","PERIOD":"95.592","CLASSIFICATION_TYPE":"U","TIME_SYSTEM":"UTC","NORAD_CAT_ID":"48366","OBJECT_ID":"2021-038P","GP_ID":"204156119","ECCENTRICITY":"0.00017900","SEMIMAJOR_AXIS":"6925.342","REF_FRAME":"TEME"},{"NORAD_CAT_ID":"48367","OBJECT_ID":"2021-038Q","TIME_SYSTEM":"UTC","CLASSIFICATION_TYPE":"U","PERIOD":"95.592","GP_ID":"204193417","REF_FRAME":"TEME","SEMIMAJOR_AXIS":"6925.362","ECCENTRICITY":"0.00018920","TLE_LINE1":"1 48367U 21038Q   22141.59633011  .00000789  00000-0  71894-4 0  9997","RCS_SIZE":"LARGE","OBJECT_NAME":"STARLINK-2643","LAUNCH_DATE":"2021-05-04","APOAPSIS":"548.538","MEAN_MOTION":"15.06395527","FILE":"3457577","BSTAR":"0.00007189400000","EPHEMERIS_TYPE":"0","ARG_OF_PERICENTER":"52.6723","TLE_LINE2":"2 48367  53.0556 103.0242 0001892  52.6723 307.4438 15.06395527 57948","EPOCH":"2022-05-21T14:18:42.921504","RA_OF_ASC_NODE":"103.0242","OBJECT_TYPE":"PAYLOAD","PERIAPSIS":"545.917","MEAN_MOTION_DDOT":"0.0000000000000","COUNTRY_CODE":"US","INCLINATION":"53.0556","REV_AT_EPOCH":"5794","DECAY_DATE":null,"MEAN_ANOMALY":"307.4438","SITE":"AFETR","ELEMENT_SET_NO":"999","MEAN_ELEMENT_THEORY":"SGP4","CENTER_NAME":"EARTH","MEAN_MOTION_DOT":"0.00000789"},{"REF_FRAME":"TEME","SEMIMAJOR_AXIS":"6925.367","ECCENTRICITY":"0.00021650","GP_ID":"204191680","OBJECT_ID":"2021-038R","NORAD_CAT_ID":"48368","TIME_SYSTEM":"UTC","PERIOD":"95.593","CLASSIFICATION_TYPE":"U","BSTAR":"0.00005374500000","EPHEMERIS_TYPE":"0","ARG_OF_PERICENTER":"49.4466","LAUNCH_DATE":"2021-05-04","APOAPSIS":"548.732","FILE":"3457577","MEAN_MOTION":"15.06393868","TLE_LINE1":"1 48368U 21038R   22141.61381526  .00000519  00000-0  53745-4 0  9998","RCS_SIZE":"LARGE","OBJECT_NAME":"STARLINK-2623","COUNTRY_CODE":"US","INCLINATION":"53.0559","REV_AT_EPOCH":"5795","DECAY_DATE":null,"PERIAPSIS":"545.733","MEAN_MOTION_DDOT":"0.0000000000000","OBJECT_TYPE":"PAYLOAD","TLE_LINE2":"2 48368  53.0559 102.9283 0002165  49.4466 310.6711 15.06393868 57954","EPOCH":"2022-05-21T14:43:53.638464","RA_OF_ASC_NODE":"102.9283","CENTER_NAME":"EARTH","MEAN_MOTION_DOT":"0.00000519","MEAN_ELEMENT_THEORY":"SGP4","ELEMENT_SET_NO":"999","MEAN_ANOMALY":"310.6711","SITE":"AFETR"},{"INCLINATION":"53.0572","COUNTRY_CODE":"US","DECAY_DATE":null,"REV_AT_EPOCH":"5799","MEAN_MOTION_DDOT":"0.0000000000000","PERIAPSIS":"545.920","OBJECT_TYPE":"PAYLOAD","TLE_LINE2":"2 48369  53.0572 101.5417 0001890  50.1269 309.9886 15.06394943 57991","RA_OF_ASC_NODE":"101.5417","EPOCH":"2022-05-21T22:11:06.324864","CENTER_NAME":"EARTH","MEAN_MOTION_DOT":"-0.00000280","MEAN_ELEMENT_THEORY":"SGP4","ELEMENT_SET_NO":"999","MEAN_ANOMALY":"309.9886","SITE":"AFETR","SEMIMAJOR_AXIS":"6925.364","REF_FRAME":"TEME","ECCENTRICITY":"0.00018900","GP_ID":"204191930","NORAD_CAT_ID":"48369","OBJECT_ID":"2021-038S","TIME_SYSTEM":"UTC","CLASSIFICATION_TYPE":"U","PERIOD":"95.592","EPHEMERIS_TYPE":"0","BSTAR":"0.00000010554000","ARG_OF_PERICENTER":"50.1269","LAUNCH_DATE":"2021-05-04","FILE":"3457577","MEAN_MOTION":"15.06394943","APOAPSIS":"548.538","TLE_LINE1":"1 48369U 21038S   22141.92437876 -.00000280  00000-0  10554-6 0  9992","RCS_SIZE":"LARGE","OBJECT_NAME":"STARLINK-2641"},{"TLE_LINE2":"2 48370  53.0558 101.5578 0002109  39.9963 320.1181 15.06399795 57998","EPOCH":"2022-05-21T22:05:47.348160","RA_OF_ASC_NODE":"101.5578","OBJECT_TYPE":"PAYLOAD","PERIAPSIS":"545.754","MEAN_MOTION_DDOT":"0.0000000000000","COUNTRY_CODE":"US","INCLINATION":"53.0558","REV_AT_EPOCH":"5799","DECAY_DATE":null,"MEAN_ANOMALY":"320.1181","SITE":"AFETR","ELEMENT_SET_NO":"999","MEAN_ELEMENT_THEORY":"SGP4","CENTER_NAME":"EARTH","MEAN_MOTION_DOT":"0.00000422","NORAD_CAT_ID":"48370","TIME_SYSTEM":"UTC","OBJECT_ID":"2021-038T","CLASSIFICATION_TYPE":"U","PERIOD":"95.592","GP_ID":"204193167","REF_FRAME":"TEME","SEMIMAJOR_AXIS":"6925.349","ECCENTRICITY":"0.00021090","TLE_LINE1":"1 48370U 21038T   22141.92068690  .00000422  00000-0  47218-4 0  9990","OBJECT_NAME":"STARLINK-2621","RCS_SIZE":"LARGE","LAUNCH_DATE":"2021-05-04","APOAPSIS":"548.675","MEAN_MOTION":"15.06399795","FILE":"3457577","BSTAR":"0.00004721800000","EPHEMERIS_TYPE":"0","ARG_OF_PERICENTER":"39.9963"},{"EPHEMERIS_TYPE":"0","BSTAR":"0.00009492300000","ARG_OF_PERICENTER":"58.2611","TLE_LINE1":"1 48371U 21038U   22141.91700953  .00001132  00000-0  94923-4 0  9999","RCS_SIZE":"LARGE","OBJECT_NAME":"STARLINK-2589","LAUNCH_DATE":"2021-05-04","FILE":"3457577","MEAN_MOTION":"15.06395429","APOAPSIS":"548.629","GP_ID":"204192931","SEMIMAJOR_AXIS":"6925.363","REF_FRAME":"TEME","ECCENTRICITY":"0.00020230","NORAD_CAT_ID":"48371","OBJECT_ID":"2021-038U","TIME_SYSTEM":"UTC","PERIOD":"95.592","CLASSIFICATION_TYPE":"U","MEAN_ELEMENT_THEORY":"SGP4","CENTER_NAME":"EARTH","MEAN_MOTION_DOT":"0.00001132","MEAN_ANOMALY":"301.8575","SITE":"AFETR","ELEMENT_SET_NO":"999","MEAN_MOTION_DDOT":"0.0000000000000","PERIAPSIS":"545.827","INCLINATION":"53.0539","COUNTRY_CODE":"US","DECAY_DATE":null,"REV_AT_EPOCH":"5799","TLE_LINE2":"2 48371  53.0539 101.5859 0002023  58.2611 301.8575 15.06395429 57992","RA_OF_ASC_NODE":"101.5859","EPOCH":"2022-05-21T22:00:29.623392","OBJECT_TYPE":"PAYLOAD"},{"PERIOD":"95.592","CLASSIFICATION_TYPE":"U","TIME_SYSTEM":"UTC","NORAD_CAT_ID":"48372","OBJECT_ID":"2021-038V","ECCENTRICITY":"0.00023600","REF_FRAME":"TEME","SEMIMAJOR_AXIS":"6925.360","GP_ID":"204192167","APOAPSIS":"548.859","FILE":"3457577","MEAN_MOTION":"15.06396254","LAUNCH_DATE":"2021-05-04","OBJECT_NAME":"STARLINK-2572","RCS_SIZE":"LARGE","TLE_LINE1":"1 48372U 21038V   22141.84697583 -.00000216  00000-0  43923-5 0  9994","ARG_OF_PERICENTER":"48.5414","BSTAR":"0.00000439230000","EPHEMERIS_TYPE":"0","OBJECT_TYPE":"PAYLOAD","EPOCH":"2022-05-21T20:19:38.711712","RA_OF_ASC_NODE":"101.8959","TLE_LINE2":"2 48372  53.0551 101.8959 0002360  48.5414 311.5778 15.06396254 57987","REV_AT_EPOCH":"5798","DECAY_DATE":null,"COUNTRY_CODE":"US","INCLINATION":"53.0551","PERIAPSIS":"545.591","MEAN_MOTION_DDOT":"0.0000000000000","ELEMENT_SET_NO":"999","SITE":"AFETR","MEAN_ANOMALY":"311.5778","MEAN_MOTION_DOT":"-0.00000216","CENTER_NAME":"EARTH","MEAN_ELEMENT_THEORY":"SGP4"},{"ARG_OF_PERICENTER":"61.2223","BSTAR":"-0.00008318000000","EPHEMERIS_TYPE":"0","RCS_SIZE":"LARGE","OBJECT_NAME":"STARLINK-2609","TLE_LINE1":"1 48373U 21038W   22141.37885792 -.00001520  00000-0 -83180-4 0  9992","APOAPSIS":"548.502","FILE":"3457102","MEAN_MOTION":"15.06388974","LAUNCH_DATE":"2021-05-04","GP_ID":"204155869","ECCENTRICITY":"0.00018120","REF_FRAME":"TEME","SEMIMAJOR_AXIS":"6925.382","CLASSIFICATION_TYPE":"U","PERIOD":"95.593","NORAD_CAT_ID":"48373","OBJECT_ID":"2021-038W","TIME_SYSTEM":"UTC","MEAN_ELEMENT_THEORY":"SGP4","MEAN_MOTION_DOT":"-0.00001520","CENTER_NAME":"EARTH","SITE":"AFETR","MEAN_ANOMALY":"298.8948","ELEMENT_SET_NO":"999","PERIAPSIS":"545.992","MEAN_MOTION_DDOT":"0.0000000000000","REV_AT_EPOCH":"5791","DECAY_DATE":null,"COUNTRY_CODE":"US","INCLINATION":"53.0532","EPOCH":"2022-05-21T09:05:33.324288","RA_OF_ASC_NODE":"103.9955","TLE_LINE2":"2 48373  53.0532 103.9955 0001812  61.2223 298.8948 15.06388974 57916","OBJECT_TYPE":"PAYLOAD"},{"ECCENTRICITY":"0.00019470","REF_FRAME":"TEME","SEMIMAJOR_AXIS":"6925.318","GP_ID":"204156120","PERIOD":"95.592","CLASSIFICATION_TYPE":"U","OBJECT_ID":"2021-038X","NORAD_CAT_ID":"48374","TIME_SYSTEM":"UTC","ARG_OF_PERICENTER":"53.8324","BSTAR":"0.00030744000000","EPHEMERIS_TYPE":"0","APOAPSIS":"548.531","FILE":"3457102","MEAN_MOTION":"15.06410087","LAUNCH_DATE":"2021-05-04","RCS_SIZE":"LARGE","OBJECT_NAME":"STARLINK-2604","TLE_LINE1":"1 48374U 21038X   22141.30882407  .00004302  00000-0  30744-3 0  9992","REV_AT_EPOCH":"5790","DECAY_DATE":null,"COUNTRY_CODE":"US","INCLINATION":"53.0533","PERIAPSIS":"545.834","MEAN_MOTION_DDOT":"0.0000000000000","OBJECT_TYPE":"PAYLOAD","EPOCH":"2022-05-21T07:24:42.399648","RA_OF_ASC_NODE":"104.3076","TLE_LINE2":"2 48374  53.0533 104.3076 0001947  53.8324 306.2845 15.06410087 57905","MEAN_MOTION_DOT":"0.00004302","CENTER_NAME":"EARTH","MEAN_ELEMENT_THEORY":"SGP4","ELEMENT_SET_NO":"999","SITE":"AFETR","MEAN_ANOMALY":"306.2845"}];
